$$SOE
2460721.500000000, A.D. 2025-Feb-15 00:00:00.0000, 2.568083433512352E+08, 3.442181035515742E+08, 1.386888232921302E+07,
2460728.500000000, A.D. 2025-Feb-22 00:00:00.0000, 2.474433985500534E+08, 3.499682257912751E+08, 1.350349692514433E+07,
2460735.500000000, A.D. 2025-Mar-01 00:00:00.0000, 2.379260554962932E+08, 3.555030522851865E+08, 1.312978861908530E+07,
2460742.500000000, A.D. 2025-Mar-08 00:00:00.0000, 2.282613044583205E+08, 3.608178814810879E+08, 1.274793912243135E+07,
2460749.500000000, A.D. 2025-Mar-15 00:00:00.0000, 2.184543090943080E+08, 3.659081273504484E+08, 1.235813857687536E+07,
2460756.500000000, A.D. 2025-Mar-22 00:00:00.0000, 2.085104021581037E+08, 3.707693273888565E+08, 1.196058576744734E+07,
2460763.500000000, A.D. 2025-Mar-29 00:00:00.0000, 1.984350821908966E+08, 3.753971483876452E+08, 1.155548801049614E+07,
2460770.500000000, A.D. 2025-Apr-05 00:00:00.0000, 1.882340115176964E+08, 3.797873930942770E+08, 1.114306094219974E+07,
2460777.500000000, A.D. 2025-Apr-12 00:00:00.0000, 1.779130136146721E+08, 3.839360078410957E+08, 1.072352839174670E+07,
2460784.500000000, A.D. 2025-Apr-19 00:00:00.0000, 1.674780696529692E+08, 3.878390902372336E+08, 1.029712228361374E+07,
2460791.500000000, A.D. 2025-Apr-26 00:00:00.0000, 1.569353144856175E+08, 3.914928966966074E+08, 9.864082526802212E+06,
2460798.500000000, A.D. 2025-May-03 00:00:00.0000, 1.462910321879896E+08, 3.948938497963272E+08, 9.424656881618083E+06,
2460805.500000000, A.D. 2025-May-10 00:00:00.0000, 1.355516511788606E+08, 3.980385454485185E+08, 8.979100801623315E+06,
2460812.500000000, A.D. 2025-May-17 00:00:00.0000, 1.247237389589634E+08, 4.009237598182097E+08, 8.527677243702352E+06,
2460819.500000000, A.D. 2025-May-24 00:00:00.0000, 1.138139966428355E+08, 4.035464559061959E+08, 8.070656425650924E+06,
2460826.500000000, A.D. 2025-May-31 00:00:00.0000, 1.028292537056171E+08, 4.059037900816878E+08, 7.608315518316895E+06,
2460833.500000000, A.D. 2025-Jun-07 00:00:00.0000, 9.177646255097812E+07, 4.079931197437346E+08, 7.140938407423496E+06,
2460840.500000000, A.D. 2025-Jun-14 00:00:00.0000, 8.066269054517250E+07, 4.098120114151687E+08, 6.668815687331468E+06,
2460847.500000000, A.D. 2025-Jun-21 00:00:00.0000, 6.949511074139360E+07, 4.113582459676600E+08, 6.192244508329988E+06,
2460854.500000000, A.D. 2025-Jun-28 00:00:00.0000, 5.828099443353156E+07, 4.126298227200058E+08, 5.711528135358959E+06,
2460861.500000000, A.D. 2025-Jul-05 00:00:00.0000, 4.702770403945391E+07, 4.136249645421891E+08, 5.226975533696204E+06,
2460868.500000000, A.D. 2025-Jul-12 00:00:00.0000, 3.574268513987640E+07, 4.143421231331621E+08, 4.738901025517374E+06,
2460875.500000000, A.D. 2025-Jul-19 00:00:00.0000, 2.443345788046772E+07, 4.147799838725482E+08, 4.247623953712553E+06,
2460882.500000000, A.D. 2025-Jul-26 00:00:00.0000, 1.310760796750147E+07, 4.149374701669794E+08, 3.753468329947859E+06,
2460889.500000000, A.D. 2025-Aug-02 00:00:00.0000, 1.772777344990506E+06, 4.148137472915782E+08, 3.256762463716924E+06,
2460896.500000000, A.D. 2025-Aug-09 00:00:00.0000, -9.563345398780778E+06, 4.144082256924853E+08, 2.757838570133954E+06,
2460903.500000000, A.D. 2025-Aug-16 00:00:00.0000, -2.089303479205180E+07, 4.137205636695945E+08, 2.257032345464855E+06,
2460910.500000000, A.D. 2025-Aug-23 00:00:00.0000, -3.220853808702604E+07, 4.127506694404444E+08, 1.754682486232579E+06,
2460917.500000000, A.D. 2025-Aug-30 00:00:00.0000, -4.350208435522816E+07, 4.114987032864670E+08, 1.251130181437671E+06,
2460924.500000000, A.D. 2025-Sep-06 00:00:00.0000, -5.476589445597690E+07, 4.099650807716935E+08, 7.467187909022868E+05,
2460931.500000000, A.D. 2025-Sep-13 00:00:00.0000, -6.599219351214038E+07, 4.081504745379744E+08, 2.417936614207029E+05,
2460938.500000000, A.D. 2025-Sep-20 00:00:00.0000, -7.717322258678356E+07, 4.060558130169268E+08, -2.632983517263830E+05,
2460945.500000000, A.D. 2025-Sep-27 00:00:00.0000, -8.830124847156709E+07, 4.036822791639614E+08, -7.682094986839592E+05,
2460952.500000000, A.D. 2025-Oct-04 00:00:00.0000, -9.936857357012983E+07, 4.010313097515786E+08, -1.272591653586060E+06,
2460959.500000000, A.D. 2025-Oct-11 00:00:00.0000, -1.103675462168874E+08, 3.981045942786142E+08, -1.776096778648704E+06,
2460966.500000000, A.D. 2025-Oct-18 00:00:00.0000, -1.212905711141731E+08, 3.949040732253894E+08, -2.278377380511373E+06,
2460973.500000000, A.D. 2025-Oct-25 00:00:00.0000, -1.321301197133223E+08, 3.914319356732862E+08, -2.779086969304025E+06,
2460980.500000000, A.D. 2025-Nov-01 00:00:00.0000, -1.428787404647894E+08, 3.876906163130032E+08, -3.277880521501064E+06,
2460987.500000000, A.D. 2025-Nov-08 00:00:00.0000, -1.535290688679223E+08, 3.836827918198369E+08, -3.774414951015174E+06,
2460994.500000000, A.D. 2025-Nov-15 00:00:00.0000, -1.640738371391200E+08, 3.794113765486860E+08, -4.268349605555236E+06,
2461001.500000000, A.D. 2025-Nov-22 00:00:00.0000, -1.745058830641087E+08, 3.748795177821838E+08, -4.759346805856898E+06,
2461008.500000000, A.D. 2025-Nov-29 00:00:00.0000, -1.848181581583875E+08, 3.700905916833684E+08, -5.247072319738045E+06,
2461015.500000000, A.D. 2025-Dec-06 00:00:00.0000, -1.950037373853485E+08, 3.650481998375751E+08, -5.731195572280630E+06,
2461022.500000000, A.D. 2025-Dec-13 00:00:00.0000, -2.050558299688118E+08, 3.597561630335813E+08, -6.211389906180531E+06,
2461029.500000000, A.D. 2025-Dec-20 00:00:00.0000, -2.149677877811882E+08, 3.542185133253089E+08, -6.687333127324358E+06,
2461036.500000000, A.D. 2025-Dec-27 00:00:00.0000, -2.247331123613700E+08, 3.484394869908828E+08, -7.158708024320528E+06,
2461043.500000000, A.D. 2026-Jan-03 00:00:00.0000, -2.343454620006163E+08, 3.424235178027374E+08, -7.625202777761847E+06,
2461050.500000000, A.D. 2026-Jan-10 00:00:00.0000, -2.437986587662008E+08, 3.361752299576923E+08, -8.086511323735341E+06,
2461057.500000000, A.D. 2026-Jan-17 00:00:00.0000, -2.530866952125419E+08, 3.296994306037292E+08, -8.542333699317679E+06,
2461064.500000000, A.D. 2026-Jan-24 00:00:00.0000, -2.622037406865092E+08, 3.230011020155174E+08, -8.992376374366730E+06,
2461071.500000000, A.D. 2026-Jan-31 00:00:00.0000, -2.711441471903062E+08, 3.160853934411551E+08, -9.436352571456701E+06,
2461078.500000000, A.D. 2026-Feb-07 00:00:00.0000, -2.799024547297596E+08, 3.089576125927482E+08, -9.873982583427563E+06,
2461085.500000000, A.D. 2026-Feb-14 00:00:00.0000, -2.884733958871660E+08, 3.016232167954893E+08, -1.030499411223124E+07,
2461092.500000000, A.D. 2026-Feb-21 00:00:00.0000, -2.968518992265679E+08, 2.940878044023432E+08, -1.072912261679588E+07,
2461099.500000000, A.D. 2026-Feb-28 00:00:00.0000, -3.050330926156405E+08, 2.863571076587927E+08, -1.114611147578207E+07,
2461106.500000000, A.D. 2026-Mar-07 00:00:00.0000, -3.130123085247389E+08, 2.784369851009986E+08, -1.155571193586224E+07,
2461113.500000000, A.D. 2026-Mar-14 00:00:00.0000, -3.207850885272989E+08, 2.703334111867549E+08, -1.195768329049711E+07,
2461120.500000000, A.D. 2026-Mar-21 00:00:00.0000, -3.283471852203189E+08, 2.620524660843575E+08, -1.235179321521400E+07,
2461127.500000000, A.D. 2026-Mar-28 00:00:00.0000, -3.356945635823259E+08, 2.536003266767143E+08, -1.273781799113885E+07,
2461134.500000000, A.D. 2026-Apr-04 00:00:00.0000, -3.428234023809985E+08, 2.449832578452767E+08, -1.311554264069018E+07,
2461141.500000000, A.D. 2026-Apr-11 00:00:00.0000, -3.497300953645960E+08, 2.362076037013051E+08, -1.348476103000955E+07,
2461148.500000000, A.D. 2026-Apr-18 00:00:00.0000, -3.564112520877728E+08, 2.272797787828927E+08, -1.384527595328535E+07,
2461155.500000000, A.D. 2026-Apr-25 00:00:00.0000, -3.628636983378351E+08, 2.182062592563016E+08, -1.419689920211092E+07,
2461162.500000000, A.D. 2026-May-02 00:00:00.0000, -3.690844761442440E+08, 2.089935741148119E+08, -1.453945162539975E+07,
2461169.500000000, A.D. 2026-May-09 00:00:00.0000, -3.750708432614501E+08, 1.996482963306336E+08, -1.487276319710739E+07,
2461176.500000000, A.D. 2026-May-16 00:00:00.0000, -3.808202717624293E+08, 1.901770341188242E+08, -1.519667311560106E+07,
2461183.500000000, A.D. 2026-May-23 00:00:00.0000, -3.863304457066565E+08, 1.805864233545445E+08, -1.551102985637225E+07,
2461190.500000000, A.D. 2026-May-30 00:00:00.0000, -3.915992599775051E+08, 1.708831214803373E+08, -1.581569096194591E+07,
2461197.500000000, A.D. 2026-Jun-06 00:00:00.0000, -3.966248206237700E+08, 1.610737996460871E+08, -1.611052280812508E+07,
2461204.500000000, A.D. 2026-Jun-13 00:00:00.0000, -4.014054430542320E+08, 1.511651332940532E+08, -1.639540066674463E+07,
2461211.500000000, A.D. 2026-Jun-20 00:00:00.0000, -4.059396486023231E+08, 1.411637941230775E+08, -1.667020877999812E+07,
2461218.500000000, A.D. 2026-Jun-27 00:00:00.0000, -4.102261611818957E+08, 1.310764430997468E+08, -1.693484031962259E+07,
2461225.500000000, A.D. 2026-Jul-04 00:00:00.0000, -4.142639040584454E+08, 1.209097237519935E+08, -1.718919729606177E+07,
2461232.500000000, A.D. 2026-Jul-11 00:00:00.0000, -4.180519965035945E+08, 1.106702556234499E+08, -1.743319045319583E+07,
2461239.500000000, A.D. 2026-Jul-18 00:00:00.0000, -4.215897502598254E+08, 1.003646279224557E+08, -1.766673915624385E+07,
2461246.500000000, A.D. 2026-Jul-25 00:00:00.0000, -4.248766658096960E+08, 8.999939337434554E+07, -1.788977127586152E+07,
2461253.500000000, A.D. 2026-Aug-01 00:00:00.0000, -4.279124284196334E+08, 7.958106223282373E+07, -1.810222307766313E+07,
2461260.500000000, A.D. 2026-Aug-08 00:00:00.0000, -4.306969037613318E+08, 6.911609641685525E+07, -1.830403914061571E+07,
2461267.500000000, A.D. 2026-Aug-15 00:00:00.0000, -4.332301327132021E+08, 5.861090422440793E+07, -1.849517230630466E+07,
2461274.500000000, A.D. 2026-Aug-22 00:00:00.0000, -4.355123261200701E+08, 4.807183684380364E+07, -1.867558349018210E+07,
2461281.500000000, A.D. 2026-Aug-29 00:00:00.0000, -4.375438618182932E+08, 3.750518528812975E+07, -1.884524125795467E+07,
2461288.500000000, A.D. 2026-Sep-05 00:00:00.0000, -4.393252818114491E+08, 2.691717488319863E+07, -1.900412159821863E+07,
$$EOE